{
  "type": "FeatureCollection",
  "features": [
    {
      "type": "Feature",
      "properties": {
        "norad_id": 36585,
        "name": "GPS BIIF-1  (PRN 25)",
        "group": "gnss",
        "lat": 16.999858761390975,
        "lon": 23.35258363616311,
        "alt_km": 20199.246983357814,
        "timestamp": "2025-12-13T16:48:32.952739+00:00",
        "meta_object_name": "GPS BIIF-1  (PRN 25)",
        "meta_object_id": "2010-022A",
        "meta_epoch": "2025-12-12T05:36:38.844288",
        "meta_mean_motion": 2.00553206,
        "meta_eccentricity": 0.01260874,
        "meta_inclination": 54.3002,
        "meta_ra_of_asc_node": 216.0943,
        "meta_arg_of_pericenter": 65.0648,
        "meta_mean_anomaly": 113.509,
        "meta_ephemeris_type": 0,
        "meta_classification_type": "U",
        "meta_norad_cat_id": 36585,
        "meta_element_set_no": 999,
        "meta_rev_at_epoch": 11384,
        "meta_bstar": 0,
        "meta_mean_motion_dot": 2.2e-07,
        "meta_mean_motion_ddot": 0,
        "tle_line1": "1 36585U 10022A   25346.23378292  .00000022  00000+0  00000+0 0  9990",
        "tle_line2": "2 36585  54.3002 216.0943 0126087  65.0648 113.5090  2.00553206113840"
      },
      "geometry": {
        "type": "Point",
        "coordinates": [
          23.35258363616311,
          16.999858761390975
        ]
      }
    },
    {
      "type": "Feature",
      "properties": {
        "norad_id": 36828,
        "name": "BEIDOU-2 IGSO-1 (C06)",
        "group": "gnss",
        "lat": -53.362204648101155,
        "lon": 89.04229282996906,
        "alt_km": 35691.33378515163,
        "timestamp": "2025-12-13T16:48:32.952751+00:00",
        "meta_object_name": "BEIDOU-2 IGSO-1 (C06)",
        "meta_object_id": "2010-036A",
        "meta_epoch": "2025-12-12T21:56:21.549120",
        "meta_mean_motion": 1.00276081,
        "meta_eccentricity": 0.00512083,
        "meta_inclination": 54.2861,
        "meta_ra_of_asc_node": 164.6456,
        "meta_arg_of_pericenter": 215.8019,
        "meta_mean_anomaly": 138.385,
        "meta_ephemeris_type": 0,
        "meta_classification_type": "U",
        "meta_norad_cat_id": 36828,
        "meta_element_set_no": 999,
        "meta_rev_at_epoch": 5622,
        "meta_bstar": 0,
        "meta_mean_motion_dot": -3.7e-07,
        "meta_mean_motion_ddot": 0,
        "tle_line1": "1 36828U 10036A   25346.91413830 -.00000037  00000+0  00000+0 0  9995",
        "tle_line2": "2 36828  54.2861 164.6456 0051208 215.8019 138.3850  1.00276081 56227"
      },
      "geometry": {
        "type": "Point",
        "coordinates": [
          89.04229282996906,
          -53.362204648101155
        ]
      }
    },
    {
      "type": "Feature",
      "properties": {
        "norad_id": 37210,
        "name": "BEIDOU-2 G4 (C04)",
        "group": "gnss",
        "lat": 2.8920417810752665,
        "lon": 134.7006222915412,
        "alt_km": 35812.93942714066,
        "timestamp": "2025-12-13T16:48:32.952764+00:00",
        "meta_object_name": "BEIDOU-2 G4 (C04)",
        "meta_object_id": "2010-057A",
        "meta_epoch": "2025-12-12T22:48:10.954656",
        "meta_mean_motion": 1.00271593,
        "meta_eccentricity": 0.00108604,
        "meta_inclination": 3.1855,
        "meta_ra_of_asc_node": 69.9384,
        "meta_arg_of_pericenter": 191.083,
        "meta_mean_anomaly": 322.988,
        "meta_ephemeris_type": 0,
        "meta_classification_type": "U",
        "meta_norad_cat_id": 37210,
        "meta_element_set_no": 999,
        "meta_rev_at_epoch": 5542,
        "meta_bstar": 0,
        "meta_mean_motion_dot": -1e-06,
        "meta_mean_motion_ddot": 0,
        "tle_line1": "1 37210U 10057A   25346.95012679 -.00000100  00000+0  00000+0 0  9995",
        "tle_line2": "2 37210   3.1855  69.9384 0010860 191.0830 322.9880  1.00271593 55429"
      },
      "geometry": {
        "type": "Point",
        "coordinates": [
          134.7006222915412,
          2.8920417810752665
        ]
      }
    },
    {
      "type": "Feature",
      "properties": {
        "norad_id": 37256,
        "name": "BEIDOU-2 IGSO-2 (C07)",
        "group": "gnss",
        "lat": 8.96202920209447,
        "lon": 85.92641295414792,
        "alt_km": 35642.80700701007,
        "timestamp": "2025-12-13T16:48:32.952776+00:00",
        "meta_object_name": "BEIDOU-2 IGSO-2 (C07)",
        "meta_object_id": "2010-068A",
        "meta_epoch": "2025-12-03T17:22:36.027840",
        "meta_mean_motion": 1.0028872,
        "meta_eccentricity": 0.00492449,
        "meta_inclination": 47.9042,
        "meta_ra_of_asc_node": 274.2614,
        "meta_arg_of_pericenter": 216.1411,
        "meta_mean_anomaly": 310.24,
        "meta_ephemeris_type": 0,
        "meta_classification_type": "U",
        "meta_norad_cat_id": 37256,
        "meta_element_set_no": 999,
        "meta_rev_at_epoch": 5483,
        "meta_bstar": 0,
        "meta_mean_motion_dot": -2.25e-06,
        "meta_mean_motion_ddot": 0,
        "tle_line1": "1 37256U 10068A   25337.72402810 -.00000225  00000+0  00000+0 0  9990",
        "tle_line2": "2 37256  47.9042 274.2614 0049244 216.1411 310.2400  1.00288720 54834"
      },
      "geometry": {
        "type": "Point",
        "coordinates": [
          85.92641295414792,
          8.96202920209447
        ]
      }
    },
    {
      "type": "Feature",
      "properties": {
        "norad_id": 37384,
        "name": "BEIDOU-2 IGSO-3 (C08)",
        "group": "gnss",
        "lat": 34.73024814768332,
        "lon": 63.40864200844486,
        "alt_km": 35908.93200325044,
        "timestamp": "2025-12-13T16:48:32.952789+00:00",
        "meta_object_name": "BEIDOU-2 IGSO-3 (C08)",
        "meta_object_id": "2011-013A",
        "meta_epoch": "2025-12-12T16:08:36.948768",
        "meta_mean_motion": 1.0027095,
        "meta_eccentricity": 0.00354506,
        "meta_inclination": 62.1436,
        "meta_ra_of_asc_node": 41.9157,
        "meta_arg_of_pericenter": 187.5119,
        "meta_mean_anomaly": 201.8968,
        "meta_ephemeris_type": 0,
        "meta_classification_type": "U",
        "meta_norad_cat_id": 37384,
        "meta_element_set_no": 999,
        "meta_rev_at_epoch": 5379,
        "meta_bstar": 0,
        "meta_mean_motion_dot": -1.97e-06,
        "meta_mean_motion_ddot": 0,
        "tle_line1": "1 37384U 11013A   25346.67264987 -.00000197  00000+0  00000+0 0  9996",
        "tle_line2": "2 37384  62.1436  41.9157 0035450 187.5119 201.8968  1.00270950 53797"
      },
      "geometry": {
        "type": "Point",
        "coordinates": [
          63.40864200844486,
          34.73024814768332
        ]
      }
    },
    {
      "type": "Feature",
      "properties": {
        "norad_id": 37605,
        "name": "GSAT-8 (GAGAN/PRN 127)",
        "group": "gnss",
        "lat": -1.3249562735344707,
        "lon": 29.934545512102073,
        "alt_km": 35805.89391288111,
        "timestamp": "2025-12-13T16:48:32.952801+00:00",
        "meta_object_name": "GSAT-8 (GAGAN/PRN 127)",
        "meta_object_id": "2011-022A",
        "meta_epoch": "2025-12-12T22:18:10.564416",
        "meta_mean_motion": 1.00271426,
        "meta_eccentricity": 0.00087287,
        "meta_inclination": 1.6505,
        "meta_ra_of_asc_node": 84.1936,
        "meta_arg_of_pericenter": 183.7037,
        "meta_mean_anomaly": 203.5943,
        "meta_ephemeris_type": 0,
        "meta_classification_type": "U",
        "meta_norad_cat_id": 37605,
        "meta_element_set_no": 999,
        "meta_rev_at_epoch": 5135,
        "meta_bstar": 0,
        "meta_mean_motion_dot": 9.7e-07,
        "meta_mean_motion_ddot": 0,
        "tle_line1": "1 37605U 11022A   25346.92928894  .00000097  00000+0  00000+0 0  9992",
        "tle_line2": "2 37605   1.6505  84.1936 0008728 183.7037 203.5943  1.00271426 51358"
      },
      "geometry": {
        "type": "Point",
        "coordinates": [
          29.934545512102073,
          -1.3249562735344707
        ]
      }
    },
    {
      "type": "Feature",
      "properties": {
        "norad_id": 37763,
        "name": "BEIDOU-2 IGSO-4 (C09)",
        "group": "gnss",
        "lat": -53.900295710345546,
        "lon": 65.02458232357115,
        "alt_km": 35255.65891392702,
        "timestamp": "2025-12-13T16:48:32.952814+00:00",
        "meta_object_name": "BEIDOU-2 IGSO-4 (C09)",
        "meta_object_id": "2011-038A",
        "meta_epoch": "2025-12-10T12:04:03.489024",
        "meta_mean_motion": 1.00284678,
        "meta_eccentricity": 0.01490344,
        "meta_inclination": 54.5829,
        "meta_ra_of_asc_node": 167.3658,
        "meta_arg_of_pericenter": 230.2355,
        "meta_mean_anomaly": 317.2212,
        "meta_ephemeris_type": 0,
        "meta_classification_type": "U",
        "meta_norad_cat_id": 37763,
        "meta_element_set_no": 999,
        "meta_rev_at_epoch": 5275,
        "meta_bstar": 0,
        "meta_mean_motion_dot": 3.6e-07,
        "meta_mean_motion_ddot": 0,
        "tle_line1": "1 37763U 11038A   25344.50281816  .00000036  00000+0  00000+0 0  9995",
        "tle_line2": "2 37763  54.5829 167.3658 0149034 230.2355 317.2212  1.00284678 52751"
      },
      "geometry": {
        "type": "Point",
        "coordinates": [
          65.02458232357115,
          -53.900295710345546
        ]
      }
    }
  ]
}